{"type": "FeatureCollection", "features": [ {"type": "Feature", "properties": {"norad_id": 66907, "name": "1998-067XT", "group": "last-30-days", "lat": -50.63164322873978, "lon": 82.93366819436342, "alt_km": 417.6844678653879, "timestamp": "2025-12-09T14:52:24.943208+00:00", "meta": {"OBJECT_NAME": "1998-067XT", "OBJECT_ID": "1998-067XT", "EPOCH": "2025-12-08T19:06:53.694720", "MEAN_MOTION": 15.50762002, "ECCENTRICITY": 0.00049716, "INCLINATION": 51.6302, "RA_OF_ASC_NODE": 161.9586, "ARG_OF_PERICENTER": 204.3216, "MEAN_ANOMALY": 155.7539, "EPHEMERIS_TYPE": 0, "CLASSIFICATION_TYPE": "U", "NORAD_CAT_ID": 66907, "ELEMENT_SET_NO": 999, "REV_AT_EPOCH": 100, "BSTAR": 0.0012614232, "MEAN_MOTION_DOT": 0.00074227, "MEAN_MOTION_DDOT": 0}, "tle": {"line1": "1 66907U 98067XT  25342.79645480  .00074227  00000+0  12614-2 0  9994", "line2": "2 66907  51.6302 161.9586 0004971 204.3216 155.7539 15.50762002  1006"}}, "geometry": {"type": "Point", "coordinates": [82.93366819436342, -50.63164322873978]}}, {"type": "Feature", "properties": {"norad_id": 66908, "name": "1998-067XU", "group": "last-30-days", "lat": -50.388969882965185, "lon": 84.66051130508096, "alt_km": 417.71605520998037, "timestamp": "2025-12-09T14:52:24.943218+00:00", "meta": {"OBJECT_NAME": "1998-067XU", "OBJECT_ID": "1998-067XU", "EPOCH": "2025-12-08T22:12:12.980736", "MEAN_MOTION": 15.50818267, "ECCENTRICITY": 0.0005167, "INCLINATION": 51.6297, "RA_OF_ASC_NODE": 161.3178, "ARG_OF_PERICENTER": 203.3313, "MEAN_ANOMALY": 156.7442, "EPHEMERIS_TYPE": 0, "CLASSIFICATION_TYPE": "U", "NORAD_CAT_ID": 66908, "ELEMENT_SET_NO": 999, "REV_AT_EPOCH": 102, "BSTAR": 0.0011183, "MEAN_MOTION_DOT": 0.00065818, "MEAN_MOTION_DDOT": 0}, "tle": {"line1": "1 66908U 98067XU  25342.92515024  .00065818  00000+0  11183-2 0  9996", "line2": "2 66908  51.6297 161.3178 0005167 203.3313 156.7442 15.50818267  1027"}}, "geometry": {"type": "Point", "coordinates": [84.66051130508096, -50.388969882965185]}}, {"type": "Feature", "properties": {"norad_id": 66909, "name": "SILVERSAT", "group": "last-30-days", "lat": -50.16309965296256, "lon": 86.11391839903735, "alt_km": 417.3653397927246, "timestamp": "2025-12-09T14:52:24.943230+00:00", "meta": {"OBJECT_NAME": "SILVERSAT", "OBJECT_ID": "1998-067XV", "EPOCH": "2025-12-08T17:33:40.093920", "MEAN_MOTION": 15.50878297, "ECCENTRICITY": 0.0005012, "INCLINATION": 51.6297, "RA_OF_ASC_NODE": 162.2763, "ARG_OF_PERICENTER": 204.4469, "MEAN_ANOMALY": 155.6283, "EPHEMERIS_TYPE": 0, "CLASSIFICATION_TYPE": "U", "NORAD_CAT_ID": 66909, "ELEMENT_SET_NO": 999, "REV_AT_EPOCH": 99, "BSTAR": 0.0013404205, "MEAN_MOTION_DOT": 0.00079284, "MEAN_MOTION_DDOT": 0}, "tle": {"line1": "1 66909U 98067XV  25342.73171405  .00079284  00000+0  13404-2 0  9997", "line2": "2 66909  51.6297 162.2763 0005012 204.4469 155.6283 15.50878297   996"}}, "geometry": {"type": "Point", "coordinates": [86.11391839903735, -50.16309965296256]}}, {"type": "Feature", "properties": {"norad_id": 66910, "name": "1998-067XW", "group": "last-30-days", "lat": -48.149112455749886, "lon": 95.65530619963391, "alt_km": 418.1253704661376, "timestamp": "2025-12-09T14:52:24.943242+00:00", "meta": {"OBJECT_NAME": "1998-067XW", "OBJECT_ID": "1998-067XW", "EPOCH": "2025-12-08T22:10:28.282080", "MEAN_MOTION": 15.51110893, "ECCENTRICITY": 0.0005927, "INCLINATION": 51.6296, "RA_OF_ASC_NODE": 161.31, "ARG_OF_PERICENTER": 189.6161, "MEAN_ANOMALY": 170.4716, "EPHEMERIS_TYPE": 0, "CLASSIFICATION_TYPE": "U", "NORAD_CAT_ID": 66910, "ELEMENT_SET_NO": 999, "REV_AT_EPOCH": 102, "BSTAR": 0.0011401, "MEAN_MOTION_DOT": 0.00067841, "MEAN_MOTION_DDOT": 0}, "tle": {"line1": "1 66910U 98067XW  25342.92393845  .00067841  00000+0  11401-2 0  9995", "line2": "2 66910  51.6296 161.3100 0005927 189.6161 170.4716 15.51110893  1023"}}, "geometry": {"type": "Point", "coordinates": [95.65530619963391, -48.149112455749886]}}, {"type": "Feature", "properties": {"norad_id": 66911, "name": "1998-067XX", "group": "last-30-days", "lat": -47.49464547214825, "lon": 98.02635182705971, "alt_km": 417.698200937386, "timestamp": "2025-12-09T14:52:24.943267+00:00", "meta": {"OBJECT_NAME": "1998-067XX", "OBJECT_ID": "1998-067XX", "EPOCH": "2025-12-09T02:48:25.031232", "MEAN_MOTION": 15.51276016, "ECCENTRICITY": 0.00057067, "INCLINATION": 51.6296, "RA_OF_ASC_NODE": 160.3494, "ARG_OF_PERICENTER": 191.2278, "MEAN_ANOMALY": 168.8584, "EPHEMERIS_TYPE": 0, "CLASSIFICATION_TYPE": "U", "NORAD_CAT_ID": 66911, "ELEMENT_SET_NO": 999, "REV_AT_EPOCH": 104, "BSTAR": 0.0013712435, "MEAN_MOTION_DOT": 0.00082324, "MEAN_MOTION_DDOT": 0}, "tle": {"line1": "1 66911U 98067XX  25343.11695638  .00082324  00000+0  13712-2 0  9993", "line2": "2 66911  51.6296 160.3494 0005706 191.2278 168.8584 15.51276016  1048"}}, "geometry": {"type": "Point", "coordinates": [98.02635182705971, -47.49464547214825]}}, {"type": "Feature", "properties": {"norad_id": 66912, "name": "1998-067XY", "group": "last-30-days", "lat": -51.077547916420514, "lon": 79.02766594410004, "alt_km": 418.1922605645259, "timestamp": "2025-12-09T14:52:24.943284+00:00", "meta": {"OBJECT_NAME": "1998-067XY", "OBJECT_ID": "1998-067XY", "EPOCH": "2025-12-08T19:07:24.190464", "MEAN_MOTION": 15.50590013, "ECCENTRICITY": 0.00050406, "INCLINATION": 51.6301, "RA_OF_ASC_NODE": 161.961, "ARG_OF_PERICENTER": 202.8515, "MEAN_ANOMALY": 157.2251, "EPHEMERIS_TYPE": 0, "CLASSIFICATION_TYPE": "U", "NORAD_CAT_ID": 66912, "ELEMENT_SET_NO": 999, "REV_AT_EPOCH": 99, "BSTAR": 0.0010396633, "MEAN_MOTION_DOT": 0.00060617, "MEAN_MOTION_DDOT": 0}, "tle": {"line1": "1 66912U 98067XY  25342.79680776  .00060617  00000+0  10397-2 0  9991", "line2": "2 66912  51.6301 161.9610 0005040 202.8515 157.2251 15.50590013   998"}}, "geometry": {"type": "Point", "coordinates": [79.02766594410004, -51.077547916420514]}}, {"type": "Feature", "properties": {"norad_id": 66913, "name": "2025-284A", "group": "last-30-days", "lat": -65.5903118503407, "lon": 111.83509778846062, "alt_km": 512.0589365775531, "timestamp": "2025-12-09T14:52:24.943295+00:00", "meta": {"OBJECT_NAME": "2025-284A", "OBJECT_ID": "2025-284A", "EPOCH": "2025-12-09T07:15:51.775776", "MEAN_MOTION": 15.18815717, "ECCENTRICITY": 0.00080685, "INCLINATION": 80.4054, "RA_OF_ASC_NODE": 134.1215, "ARG_OF_PERICENTER": 257.9833, "MEAN_ANOMALY": 102.0491, "EPHEMERIS_TYPE": 0, "CLASSIFICATION_TYPE": "U", "NORAD_CAT_ID": 66913, "ELEMENT_SET_NO": 999, "REV_AT_EPOCH": 60, "BSTAR": 0.00067487773, "MEAN_MOTION_DOT": 0.00014088, "MEAN_MOTION_DDOT": 0}, "tle": {"line1": "1 66913U 25284A   25343.30268259  .00014088  00000+0  67488-3 0  9994", "line2": "2 66913  80.4054 134.1215 0008068 257.9833 102.0491 15.18815717   601"}}, "geometry": {"type": "Point", "coordinates": [111.83509778846062, -65.5903118503407]}}, {"type": "Feature", "properties": {"norad_id": 66914, "name": "2025-284B", "group": "last-30-days", "lat": -58.366931937241475, "lon": 117.7755296784628, "alt_km": 508.1478795131816, "timestamp": "2025-12-09T14:52:24.943305+00:00", "meta": {"OBJECT_NAME": "2025-284B", "OBJECT_ID": "2025-284B", "EPOCH": "2025-12-07T23:38:29.179680", "MEAN_MOTION": 15.20093076, "ECCENTRICITY": 0.00128589, "INCLINATION": 80.4047, "RA_OF_ASC_NODE": 135.7909, "ARG_OF_PERICENTER": 245.1407, "MEAN_ANOMALY": 114.8485, "EPHEMERIS_TYPE": 0, "CLASSIFICATION_TYPE": "U", "NORAD_CAT_ID": 66914, "ELEMENT_SET_NO": 999, "REV_AT_EPOCH": 40, "BSTAR": 0.00060156278, "MEAN_MOTION_DOT": 0.00013048, "MEAN_MOTION_DDOT": 0}, "tle": {"line1": "1 66914U 25284B   25341.98505995  .00013048  00000+0  60156-3 0  9998", "line2": "2 66914  80.4047 135.7909 0012858 245.1407 114.8485 15.20093076   400"}}, "geometry": {"type": "Point", "coordinates": [117.7755296784628, -58.366931937241475]}}, {"type": "Feature", "properties": {"norad_id": 66915, "name": "HULIANWANG DIGUI 14A", "group": "last-30-days", "lat": -38.97945797308284, "lon": -7.20255833669586, "alt_km": 874.2723499794374, "timestamp": "2025-12-09T14:52:24.943317+00:00", "meta": {"OBJECT_NAME": "HULIANWANG DIGUI 14A", "OBJECT_ID": "2025-285A", "EPOCH": "2025-12-09T05:13:34.330944", "MEAN_MOTION": 14.05465816, "ECCENTRICITY": 0.0008091, "INCLINATION": 50.0033, "RA_OF_ASC_NODE": 131.6477, "ARG_OF_PERICENTER": 270.8051, "MEAN_ANOMALY": 89.1927, "EPHEMERIS_TYPE": 0, "CLASSIFICATION_TYPE": "U", "NORAD_CAT_ID": 66915, "ELEMENT_SET_NO": 999, "REV_AT_EPOCH": 41, "BSTAR": 9.461693e-06, "MEAN_MOTION_DOT": -1.37e-06, "MEAN_MOTION_DDOT": 0}, "tle": {"line1": "1 66915U 25285A   25343.21775846 -.00000137  00000+0  94617-5 0  9999", "line2": "2 66915  50.0033 131.6477 0008091 270.8051  89.1927 14.05465816   411"}}, "geometry": {"type": "Point", "coordinates": [-7.20255833669586, -38.97945797308284]}}, {"type": "Feature", "properties": {"norad_id": 66916, "name": "HULIANWANG DIGUI 14B", "group": "last-30-days", "lat": -39.317222151010554, "lon": -6.558775419528232, "alt_km": 874.5048477608498, "timestamp": "2025-12-09T14:52:24.943328+00:00", "meta": {"OBJECT_NAME": "HULIANWANG DIGUI 14B", "OBJECT_ID": "2025-285B", "EPOCH": "2025-12-09T05:13:25.654656", "MEAN_MOTION": 14.055122, "ECCENTRICITY": 0.00069463, "INCLINATION": 50.0044, "RA_OF_ASC_NODE": 131.6482, "ARG_OF_PERICENTER": 265.5418, "MEAN_ANOMALY": 94.4694, "EPHEMERIS_TYPE": 0, "CLASSIFICATION_TYPE": "U", "NORAD_CAT_ID": 66916, "ELEMENT_SET_NO": 999, "REV_AT_EPOCH": 41, "BSTAR": 9.336552e-06, "MEAN_MOTION_DOT": -1.37e-06, "MEAN_MOTION_DDOT": 0}, "tle": {"line1": "1 66916U 25285B   25343.21765804 -.00000137  00000+0  93366-5 0  9993", "line2": "2 66916  50.0044 131.6482 0006946 265.5418  94.4694 14.05512200   415"}}, "geometry": {"type": "Point", "coordinates": [-6.558775419528232, -39.317222151010554]}}]}